PROBA-1                 
1 26958U 01049B   26188.51369145  .00002776  00000+0  18060-3 0  9992
2 26958  97.9598 197.7565 0056023  55.0591 305.5880 15.07590104346688
CUTE-1 (CO-55)          
1 27844U 03031E   26188.47926413  .00000234  00000+0  12008-3 0  9995
2 27844  98.6738 196.7829 0010633 122.6531 237.5675 14.24348198194567
CUBESAT XI-IV (CO-57)   
1 27848U 03031J   26188.47791579  .00000195  00000+0  10456-3 0  9993
2 27848  98.6771 196.4779 0010210 139.6847 220.5090 14.23631593194261
APRIZESAT 4             
1 35684U 09041D   26188.14924469  .00000587  00000+0  76744-4 0  9995
2 35684  98.1405 263.8672 0041924 256.3784 103.2759 14.83906300914324
APRIZESAT 3             
1 35686U 09041F   26188.36163671  .00001193  00000+0  10759-3 0  9998
2 35686  98.2083 342.5549 0061416   1.6270 358.5138 14.96293772919390
PROBA-2                 
1 36037U 09059B   26188.46044608  .00000161  00000+0  48068-4 0  9996
2 36037  98.2457  11.5327 0012479 213.4919 146.5490 14.54871279884475
APRIZESAT 5             
1 37792U 11044E   26187.73418369  .00000892  00000+0  11993-3 0  9997
2 37792  98.2450 121.3291 0050926 300.6841  58.9357 14.81117103801688
APRIZESAT 6             
1 37793U 11044F   26188.21910793  .00000703  00000+0  10625-3 0  9992
2 37793  98.2347  99.1265 0043694  23.5847 136.8949 14.76948332800107
PROBA-V                 
1 39159U 13021A   26187.93942113  .00000100  00000+0  61957-4 0  9992
2 39159  98.3598 165.5720 0005423  78.7537 281.4252 14.23602192683920
APRIZESAT 7             
1 39416U 13066A   26188.34639601  .00001152  00000+0  11897-3 0  9993
2 39416  97.7718 141.2777 0036709 142.5131 217.8658 14.91607312684239
APRIZESAT 8             
1 39425U 13066K   26188.31964411  .00000712  00000+0  83005-4 0  9992
2 39425  97.8227 135.5078 0044856 218.1814 141.6223 14.87687995682662
BUGSAT-1 (TITA)         
1 40014U 14033E   26188.56774487  .00003000  00000+0  15934-3 0  9990
2 40014  98.0427 282.3123 0029197 110.7848 249.6515 15.15825788658921
SAUDISAT 4              
1 40016U 14033G   26188.33988545  .00000497  00000+0  72116-4 0  9992
2 40016  97.7608 333.7803 0044931   9.6934 350.5134 14.79569779649058
APRIZESAT 9             
1 40018U 14033J   26187.89098000  .00000682  00000+0  10714-3 0  9993
2 40018  97.9085 320.6105 0067109 136.1469 224.5095 14.74244511646469
APRIZESAT 10            
1 40019U 14033K   26187.92258437  .00000545  00000+0  93315-4 0  9997
2 40019  97.9673 314.4444 0078090 209.8934 149.7802 14.70903896645159
TECHDEMOSAT-1 (TDS-1)   
1 40076U 14037H   26188.45599323  .00005401  00000+0  30499-3 0  9994
2 40076  98.3826 182.6824 0006174 183.2403 176.8787 15.13608368651293
TECHNOSAT               
1 42829U 17042E   26188.39459045  .00002595  00000+0  18610-3 0  9992
2 42829  97.4299 345.2867 0018093  28.5922 331.6293 15.05076097489740
FLYING LAPTOP           
1 42831U 17042G   26188.51522817  .00001555  00000+0  12496-3 0  9998
2 42831  97.4784 343.2786 0019894  56.9148 303.3984 15.01277987489509
HAWK-A                  
1 43765U 18099H   26188.42975348  .00004969  00000+0  19950-3 0  9993
2 43765  97.3902 240.4034 0033919 211.6002 148.3199 15.24897073416182
HAWK-B                  
1 43794U 18099AN  26188.14703259  .00004629  00000+0  19709-3 0  9999
2 43794  97.3948 239.4973 0030668 231.0979 128.7522 15.23054425416076
HAWK-C                  
1 43799U 18099AT  26188.09833466  .00006382  00000+0  22825-3 0  9993
2 43799  97.3878 241.0870 0039526 212.7144 147.1647 15.28404200416955
SALSAT                  
1 46495U 20068K   26187.96288697  .00005977  00000+0  20799-3 0  9990
2 46495  97.8858 192.2352 0008388 224.1445 135.9125 15.30092809318384
HAWK-2C                 
1 47502U 21006CT  26188.10294113  .00004881  00000+0  14630-3 0  9990
2 47502  97.2268 232.0168 0008438 124.2013 236.0032 15.34919530302553
HAWK-2A                 
1 47505U 21006CW  26188.10524384  .00004879  00000+0  14619-3 0  9993
2 47505  97.2309 232.7085 0007917 127.1585 233.0383 15.34933694302557
HAWK-2B                 
1 47508U 21006CZ  26188.09943542  .00005634  00000+0  16777-3 0  9992
2 47508  97.2179 231.0031 0008490 125.6837 234.5198 15.35057195302552
HAWK-3B                 
1 48931U 21059BE  26187.50439762  .00036099  00000+0  28563-3 0  9995
2 48931  97.6647  26.0618 0003758 231.7433 128.3491 15.71268243280888
HAWK-3C                 
1 48948U 21059BX  26188.01356433  .00035456  00000+0  28021-3 0  9998
2 48948  97.6768  32.3408 0003979 231.9425 128.1479 15.71298826280968
HAWK-3A                 
1 48957U 21059CG  26188.01345058  .00036405  00000+0  28767-3 0  9991
2 48957  97.6708  29.5295 0003887 234.0895 126.0006 15.71296947280962
HAWK-5C                 
1 52754U 22057Y   26188.42163654  .00013756  00000+0  22921-3 0  9995
2 52754  97.6616 349.4067 0003603  15.7135 344.4228 15.52127476229489
HAWK-5B                 
1 52756U 22057AA  26188.42144565  .00013702  00000+0  22825-3 0  9991
2 52756  97.6632 347.7585 0004175   3.3588 356.7691 15.52132556229480
HAWK-5A                 
1 52757U 22057AB  26188.42125098  .00013718  00000+0  22853-3 0  9990
2 52757  97.6627 348.5893 0004091   8.2298 351.9020 15.52132132229488
